ONEWEB-0086             
1 45456U 20020AJ  23230.71151883 -.00000593  00000+0 -17077-2 0  9994
2 45456  87.8896 226.3348 0001722 102.4349 257.6972 13.11417266167155
ONEWEB-0088             
1 45457U 20020AK  23230.38301096  .00000150  00000+0  38771-3 0  9993
2 45457  87.8892 226.3817 0001859  90.7251 269.4090 13.11413456167053
ONEWEB-0102             
1 47258U 20100A   23230.66339254  .00000388  00000+0  10441-2 0  9997
2 47258  87.9024 196.0995 0002394  86.5446 273.5957 13.12445107129163
ONEWEB-0109             
1 47259U 20100B   23230.59774073  .00000373  00000+0  10021-2 0  9990
2 47259  87.9039 196.1275 0002016  86.0516 274.0843 13.12442185128988
ONEWEB-0110             
1 47260U 20100C   23230.46855478 -.00000292  00000+0 -84752-3 0  9992
2 47260  87.9021 196.1202 0002192  87.7897 272.3483 13.12441515129131
ONEWEB-0111             
1 47261U 20100D   23229.66171777  .00000327  00000+0  87416-3 0  9993
2 47261  87.9035 196.2631 0002214  85.1884 274.9498 13.12441985128861
ONEWEB-0114             
1 47262U 20100E   23230.60832810  .00000020  00000+0  19923-4 0  9991
2 47262  87.9022 196.1030 0002584  76.8279 283.3138 13.12442122128943
ONEWEB-0117             
1 47263U 20100F   23229.45629375  .00000139  00000+0  35107-3 0  9995
2 47263  87.9039 196.3636 0002008  84.5762 275.5595 13.12442435128802
